GLOBALSTAR M079 [+]     
1 37188U 10054A   22305.36226194 -.00000098  00000+0  30120-4 0  9999
2 37188  52.0022 178.6067 0000933  68.2351 103.5151 12.62266470556047
GLOBALSTAR M074 [+]     
1 37189U 10054B   22304.43845657 -.00000087  00000+0  95978-4 0  9998
2 37189  51.9999 180.8912 0000931  81.7724  89.6631 12.62264175555928
GLOBALSTAR M076 [+]     
1 37190U 10054C   22305.41502714 -.00000093  00000+0  58765-4 0  9993
2 37190  52.0012 178.0020 0001196  66.9881 104.1843 12.62268559556053
GLOBALSTAR M077 [+]     
1 37191U 10054D   22304.49699859 -.00000105  00000+0 -68886-5 0  9999
2 37191  52.0044 137.3766 0001004  91.9115 284.4615 12.62266425555957
GLOBALSTAR M075 [+]     
1 37192U 10054E   22304.55770995 -.00000076  00000+0  15301-3 0  9996
2 37192  51.9942 223.3992 0000802  51.4243 122.8114 12.62269230554818
GLOBALSTAR M073 [+]     
1 37193U 10054F   22304.83934848 -.00000109  00000+0 -26409-4 0  9997
2 37193  52.0030 135.6313 0001011  91.7401 282.2880 12.62268693556687
GLOBALSTAR M083 [+]     
1 37739U 11033A   22304.88638160 -.00000093  00000+0  62622-4 0  9992
2 37739  51.9851  85.5253 0000542 114.2058  55.0943 12.62265295525705
GLOBALSTAR M088 [+]     
1 37740U 11033B   22304.86051948 -.00000085  00000+0  10222-3 0  9994
2 37740  51.9755 351.9078 0000186  40.6894 130.4456 12.62266565521242
GLOBALSTAR M091 [+]     
1 37741U 11033C   22304.79459192 -.00000082  00000+0  11937-3 0  9991
2 37741  52.0002 313.9477 0000282  15.1569 155.4147 12.62268363522023
GLOBALSTAR M085 [+]     
1 37742U 11033D   22304.90617932 -.00000079  00000+0  13754-3 0  9998
2 37742  51.9864 265.4940 0000547  42.7404 335.7735 12.62268600522550
GLOBALSTAR M081 [+]     
1 37743U 11033E   22304.65044269 -.00000085  00000+0  10298-3 0  9995
2 37743  51.9953 268.4691 0000727  33.3251 141.6576 12.62264402522667
GLOBALSTAR M089 [+]     
1 37744U 11033F   22304.53221006 -.00000076  00000+0  15258-3 0  9990
2 37744  51.9924 223.2367 0001068  71.8471 106.0432 12.62269454523495
GLOBALSTAR M084 [+]     
1 38040U 11080A   22304.66774865 -.00000105  00000+0 -77216-5 0  9990
2 38040  51.9999  89.6020 0001000 102.9650 270.8940 12.62269564501490
GLOBALSTAR M080 [+]     
1 38041U 11080B   22304.72050574 -.00000108  00000+0 -24649-4 0  9996
2 38041  52.0051  90.7119 0001101  99.7290 273.3222 12.62269803501621
GLOBALSTAR M082 [+]     
1 38042U 11080C   22305.52522409 -.00000096  00000+0  44897-4 0  9999
2 38042  52.0095  43.6061 0000465 168.2970 204.5319 12.62271959502609
GLOBALSTAR M092 [+]     
1 38043U 11080D   22304.78669478 -.00000091  00000+0  73714-4 0  9990
2 38043  52.0057 136.1834 0001227 101.7504 271.7279 12.62264731500795
GLOBALSTAR M090 [+]     
1 38044U 11080E   22305.55218006 -.00000102  00000+0  10760-4 0  9999
2 38044  51.9909  38.5700 0000347 113.3283 261.5191 12.62266579502594
GLOBALSTAR M086 [+]     
1 38045U 11080F   22304.55103306 -.00000108  00000+0 -22422-4 0  9990
2 38045  51.9917  42.0933 0001030  29.7444 354.2536 12.62266080502377
GLOBALSTAR M097 [+]     
1 39072U 13005A   22304.73062795 -.00000075  00000+0  15947-3 0  9991
2 39072  52.0054 315.1206 0000363  14.6136 345.4741 12.62265234449648
GLOBALSTAR M093 [+]     
1 39073U 13005B   22304.70418462 -.00000081  00000+0  12791-3 0  9996
2 39073  51.9814 310.0409 0000460 355.8534   4.2328 12.62265655449592
GLOBALSTAR M094 [+]     
1 39074U 13005C   22304.78339495 -.00000080  00000+0  13247-3 0  9999
2 39074  51.9953 223.2223 0000813  54.3841 305.7101 12.62270013451214
GLOBALSTAR M096 [+]     
1 39075U 13005D   22304.87588416 -.00000076  00000+0  15685-3 0  9992
2 39075  52.0067 270.7055 0000635  28.6848 331.4054 12.62270875450146
GLOBALSTAR M078 [+]     
1 39076U 13005E   22304.61205699 -.00000022  00000+0  45645-3 0  9994
2 39076  51.9895 357.3254 0000712 192.6707 167.4141 12.62262269448733
GLOBALSTAR M095 [+]     
1 39077U 13005F   22304.40036151 -.00000084  00000+0  11139-3 0  9996
2 39077  51.9822 355.6396 0000332 228.1381 131.9457 12.62263317448925
GLOBALSTAR FM15 [+]     
1 52888U 22064A   22304.75403596 -.00000128  00000+0  00000+0 0  9995
2 52888  51.9777 121.0643 0008786 297.9057  62.0960 13.37544048 17970
